COSMOS 2361             
1 25590U 98076A   24162.90520962  .00000090  00000+0  80539-4 0  9996
2 25590  82.9353  30.6240 0031478 357.1381  13.3156 13.73120232275657
COSMOS 2378             
1 26818U 01023A   24162.97007280  .00000094  00000+0  84141-4 0  9993
2 26818  82.9281  47.2629 0031807 299.2100  71.3714 13.74051057153734
COSMOS 2389             
1 27436U 02026A   24162.92016743  .00000093  00000+0  80948-4 0  9993
2 27436  82.9508 353.9093 0046985 152.7972 334.7940 13.75065538105923
COSMOS 2398             
1 27818U 03023A   24162.91188501  .00000101  00000+0  94163-4 0  9990
2 27818  82.9478 317.8507 0030952 197.6366 274.1569 13.72297409 52751
COSMOS 2407             
1 28380U 04028A   24162.84381817  .00000120  00000+0  10677-3 0  9996
2 28380  82.9608 260.0929 0040056 150.1755 346.5926 13.76213498998581
COSMOS 2414             
1 28521U 05002A   24162.73404068  .00000123  00000+0  90498-4 0  9991
2 28521  82.9504 240.6000 0038741 269.1551  90.5173 13.87777235981690
COSMOS 2429             
1 32052U 07038A   24162.92633027  .00000099  00000+0  87079-4 0  9999
2 32052  82.9816  28.5030 0039414 130.1387 230.3233 13.75055649840463
COSMOS 2454             
1 35635U 09039A   24162.68555791  .00000118  00000+0  82859-4 0  9999
2 35635  82.9570 225.6395 0018710 202.4049 277.5915 13.89805803755092
COSMOS 2463             
1 36519U 10017A   24162.86151854  .00000108  00000+0  10280-3 0  9998
2 36519  82.9613  70.7030 0036652  15.3785  53.5214 13.71561747706996
